loc_name,address,gu,main_flower,season,length,feature,result_stats,final_station,exit_num,station_code,lat,long
여의 동·서로(윤중로),서울특별시 영등포구 여의도동 여의서로,영등포구,벚꽃,3월말~4월중,6.9㎞,"여의도 국회주변 화려한 벚꽃이 장관을 이루며 매년 ‘한강 여의도 봄꽃축제’ 개최(나들이, 산책)",1360000,국회의사당역,2,914,37.5331007,126.9199973
올림픽로(광진교 남단 ~ LG전자사거리),서울특별시 강동구 올림픽로 722,강동구,벚꽃,4월중~4월말,0.7km,가로변 벚꽃이 아름다움(산책),1230000,천호역,3,547,37.5456749,127.1262186
벚꽃로(독산역~가산디지털단지역),서울특별시 금천구 벚꽃로 30,금천구,벚꽃,4월중~4월말,3.4㎞,십리에 이르는 철도가로변에 벚꽃길이 아름다움(드라이브),980000,금천구청역,1,P144,37.4582394,126.8941766
송파나루공원(석촌호수),서울특별시 송파구 석촌호수로 188,송파구,"벚꽃, 철쭉, 야생화",4월중~6월초,2.5km,"석촌호수와 어우러져 피는 벚꽃, 철쭉, 야생화가 아름다움(산책, 운동)",687000,잠실역,3,216,37.5062406,127.0977163
보라매공원,서울특별시 동작구 여의대방로20길 33 보라매공원,동작구,벚꽃,4월,0.2km,"공원 내 전시된 공군항공기와 봄철 화려하게 핀 벚꽃을  한눈에 담을 수 있는 경관이 돋보임(나들이,포토존)",401000,보라매역,1,742,37.4932342,126.9197115
안산도시자연공원 (안산문화쉼터벚꽃길),서울특별시 서대문구 연희로32길 134,서대문구,"벚꽃, 철쭉, 개나리",4월초~4월말,2.0㎞,"안산 입구로 왕벚나무가 만개할 때 드라마 촬영지로 각광을 받고 있음(나들이, 산책)",363000,무악재역,4,325,37.5794831,126.9380023
경희대학교,서울특별시 동대문구 경희대로 24,동대문구,"벚꽃, 개나리 등",4월초~6월중,2.0km,대학교 내 3대 명건물과 함께  아름다운 벚꽃길 연출,246000,회기역,1,123,37.5936281,127.0528162
방화공원,서울특별시 강서구 금낭화로 167,강서구,벚꽃,4월중~4월말,2.0㎞,개화산과 연계되어 봄꽃이 아름다움(나들이),245000,방화역,4,510,37.5807525,126.8125415
서울숲 벚나무길,서울특별시 성동구 뚝섬로 273 서울숲공원,성동구,"벚꽃, 튤립",4월초～5월중,0.7㎞,"연분홍 벚꽃과 화사한 색감의 튤립이 돋보임(나들이, 산책)",135000,뚝섬역,7,210,37.5443878,127.0374424
오리로,서울특별시 구로구 경인로 98,구로구,벚꽃,4월중,1.0km,궁동생태공원 인근 벚나무가 식재된 거리 꽃길을 조망(산책),133000,온수역,1,145,37.4914515,126.8330793
도구로(도구머리꽃길),서울특별시 서초구 도구로 45-3,서초구,"벚꽃, 개나리",4월중~4월말,0.4km,도구머리공원 사잇길을 따라 한적하게 산책하기 좋은 꽃길(산책),116000,사당역,13,226,37.4807172,126.9882185
어린이대공원 산책로,서울특별시 광진구 능동로 216,광진구,벚꽃,4월중~4월말,1.5㎞,"벚꽃길이 아름다워 가족, 연인들의 나들이 장소로 최적(나들이, 산책)",107000,아차산역,4,545,37.5495886,127.081578
희우정로(양화로11 ~망원정사거리),서울특별시 마포구 희우정로 66,마포구,벚꽃,4월초~4월중,0.5km,주민들의 산책로에 벚꽃으로 아름다운 경관 제공(산책),96800,망원역,2,621,37.5523059,126.9048429
워커힐길,서울특별시 광진구 광장동 워커힐길,광진구,벚꽃,4월초~4월중,1.5㎞,"연분홍색과 벚꽃과 아차산의 경관이 어우러져 아름다움 (드라이브,산책)",50600,광나루역,1,546,37.5519,127.10593
도림천(신대방역~시흥대로),서울특별시 동작구 대림로 2,관악구,벚꽃,4월중~4월말,1.0km,"제방위 산책로에 벚꽃이 만개하면 아름다운 경관 연출(산책, 운동)",48800,신대방역,4,231,37.487549,126.9129603
경의선숲길(공덕역~대흥역),서울특별시 마포구 백범로36길 8-7,마포구,벚꽃,3월말~4월말,0.8㎞,산책로를 따라 피어난 벚꽃이 다양한 수목들과 어우러져 아름다움을 경관 연출(산책),29800,공덕역,1,529,37.5436459,126.9490242
남산공원 순환로,서울특별시 중구 남산공원길 507,중구,벚꽃 등,4월중~4월말,5.0㎞,"연분홍 벚꽃길이 아름다운 경관을 제공(운동, 나들이)",23100,명동역,1,424,37.5539469,126.9899134
성내천 둔치(위례성길~복개종점),서울특별시 송파구 성내천로 6,송파구,벚꽃,4월중~4월말,1.8km,"주민헌수를 통하여 식재한 왕벚나무 400여주가 만개하여 아름다운 경관을 연출함(산책, 운동)",20600,방이역,1,P551,37.5075718,127.1354254
양재천변,서울특별시 서초구 양재동 양재천,서초구,"개나리, 벚꽃 등",4월초～4월말,2.5㎞,"하천변 산책로를 따라 봄꽃을 감상할 수 있음(산책, 운동)",19400,양재시민의숲역,1,D09,37.4702778,127.0308333
경춘선 숲길,서울특별시 노원구 화랑로51가길 3,노원구,벚꽃,3월말~4월중순,0.4km,철길을 따라 아름다운 벚꽃길 연출(산책),17800,화랑대역,1,646,37.6236785,127.0900231
북서울 꿈의 숲 월영지 주변,서울특별시 강북구 월계로 173 북서울 꿈의 숲,강북구,벚꽃,4월중~4월말,4.0km,"연분홍색의 벚꽃이 월영지, 월광폭포와 어울려 아름다운 경관을 제공(나들이, 산책)",17700,미아사거리역,1,416,37.6214313,127.0406246
안양천 제방(신정교~양평교),서울특별시 영등포구 양평동 487 안양천 제방길,영등포구,"벚꽃, 개나리, 철쭉",3월말~4월중,3.0㎞,"안양천을 따라 산책로가 조성되어 있고 산책로변으로 꽃이 아름다움(나들이, 산책, 운동)",10800,양평역,1,522,37.5290803,126.8879485
중랑천제방(공원녹지순환길),서울특별시 중랑구 중화동 410-11 중랑천제방,동대문구,"벚꽃, 개나리 등",4월초~4월중,3.0㎞,"공원녹지 순환길을 따라 아름다운 벚꽃길 연출(산책, 운동)",10600,외대앞역,3,122,37.5841733,127.0753484
